{"type":"FeatureCollection","features":[{"type":"Feature","properties":{"shapeISO":"DO-32","shapeName":"Santo Domingo","shapeID":"93820187B48877163432622","shapeGroup":"DOM","shapeType":"ADM1"},"geometry":{"type":"Polygon","coordinates":[[[-70.0040177071514,18.417466539449265],[-69.99351966100355,18.422552801870353],[-69.98091800797582,18.42646432402151],[-69.97518063008195,18.462620144104363],[-69.9974014955825,18.4938843861556],[-69.99476599815225,18.52243561371273],[-69.96799760640431,18.536749986023125],[-69.95580196758667,18.520239365854138],[-69.94350297688086,18.50181671776744],[-69.92448604959145,18.50008555790228],[-69.90572750472049,18.504968980034477],[-69.87782223231008,18.500964057045678],[-69.87938391763365,18.471218165585896],[-69.85147050725809,18.472479559184364],[-69.69737708228647,18.456366278381125],[-69.6899307928717,18.454087631938762],[-69.68195553302141,18.44676341380054],[-69.66515051978061,18.419501044237904],[-69.65949459529932,18.415920315270426],[-69.64659583233171,18.413560289176047],[-69.63255774614302,18.4135195975515],[-69.623605924174,18.41632721622807],[-69.6208389962226,18.425482489125642],[-69.62262936115607,18.43675364826231],[-69.6231583315917,18.447984116673723],[-69.61681067557222,18.457342841399054],[-69.60212154857055,18.45571523576956],[-69.57998613215426,18.444484768257524],[-69.52811012394329,18.410312170031034],[-69.52466549301809,18.43660106029074],[-69.51825761569637,18.468537095910307],[-69.57696204306384,18.479750880998353],[-69.61657202787677,18.519980984335007],[-69.60047481975707,18.546180935301976],[-69.57990759975581,18.571528225547297],[-69.5780472477822,18.59659129495239],[-69.58254309808544,18.62162852593579],[-69.58791744663287,18.61935476281215],[-69.59355017759853,18.619794013283155],[-69.58781409384531,18.635167751890293],[-69.57533423508681,18.648216051429728],[-69.61112016496364,18.661238512547357],[-69.64509741881082,18.654288031067836],[-69.66393347804754,18.642660833930393],[-69.68574093329738,18.638242498892282],[-69.74385108056285,18.61772695573447],[-69.78997229728364,18.571838283909756],[-69.79798214416061,18.60010529242541],[-69.8189886137335,18.6194322780772],[-69.82462134469924,18.639276028565945],[-69.83847062901629,18.65669098630005],[-69.86115658161089,18.681082262136755],[-69.88826087104232,18.701339422876146],[-69.9114377509514,18.702476305337314],[-69.93464046928224,18.70340648042483],[-69.94730119519397,18.702838040543185],[-69.95908342106299,18.699039822230077],[-69.96368262415379,18.690125636888723],[-69.96634396000567,18.680927232505837],[-70.00877031120083,18.662220364478316],[-70.0560542470059,18.671031196132816],[-70.08884294334706,18.679480292581502],[-70.12070146280223,18.690694078568953],[-70.1390207590008,18.722035834086512],[-70.1671844138296,18.7316734889404],[-70.16638342995125,18.68692169777819],[-70.13930497894162,18.645348009103344],[-70.14801245780862,18.62310130518111],[-70.15284420399675,18.598554998814137],[-70.14212134532377,18.563156643464367],[-70.12364702039366,18.53124644626658],[-70.09907487740364,18.51385732695411],[-70.08049719878665,18.49230825412272],[-70.07781002541225,18.47512584128458],[-70.06631201858471,18.46336945203865],[-70.04370357855723,18.46404124650644],[-70.02122433063832,18.46324026082945],[-70.00853776720413,18.44538605442287],[-70.0077109440048,18.42375946722572],[-70.0040177071514,18.417466539449265]]]}},{"type":"Feature","properties":{"shapeISO":"DO-01","shapeName":"Distrito Nacional","shapeID":"93820187B18367237384541","shapeGroup":"DOM","shapeType":"ADM1"},"geometry":{"type":"Polygon","coordinates":[[[-69.98091800797582,18.42646432402151],[-69.96690833225372,18.430812893200567],[-69.95710201674459,18.435288803735403],[-69.93122311115766,18.45197174659893],[-69.89981035056718,18.466457423571256],[-69.88365637903857,18.47101471555672],[-69.87938391763365,18.471218165585896],[-69.87782223231008,18.500964057045678],[-69.90572750472049,18.504968980034477],[-69.92448604959145,18.50008555790228],[-69.94350297688086,18.50181671776744],[-69.95580196758667,18.520239365854138],[-69.96799760640431,18.536749986023125],[-69.99476599815225,18.52243561371273],[-69.9974014955825,18.4938843861556],[-69.97518063008195,18.462620144104363],[-69.98091800797582,18.42646432402151]]]}}]}
